CTC2_L_00115016-03
1 24017U 26980DY  26070.40843750  .00000000  00000+0  00000-0 0  9994
2 24017  70.0000 180.0000 0000000   0.0000   0.0000 14.51731151    12
CTC2_L_00115016-04
1 24018U 25280TE  26070.40843750  .00000000  00000+0  00000-0 0  9997
2 24018  70.0000 180.0000 0000000   0.0000  90.0000 14.51731151    12
CTC2_L_00115017-01
1 24019U 24090XQ  26070.40843750  .00000000  00000+0  00000-0 0  9996
2 24019  70.0000 192.0000 0000000   0.0000 192.0000 14.51731151    19
CTC2_L_00115017-02
1 24020U 23900FD  26070.40843750  .00000000  00000+0  00000-0 0  9997
2 24020  70.0000 192.0000 0000000   0.0000 282.0000 14.51731151    11
CTC2_L_00115017-03
1 24021U 22272JL  26070.40843750  .00000000  00000+0  00000-0 0  9999
2 24021  70.0000 192.0000 0000000   0.0000  12.0000 14.51731151    13
CTC2_L_00115017-04
1 24022U 22402LL  26070.40843750  .00000000  00000+0  00000-0 0  9995
2 24022  70.0000 192.0000 0000000   0.0000 102.0000 14.51731151    14
CTC2_L_00115018-01
1 24023U 24713DR  26070.40843750  .00000000  00000+0  00000-0 0  9993
2 24023  70.0000 204.0000 0000000   0.0000 204.0000 14.51731151    12
CTC2_L_00115018-02
1 24024U 23290LN  26070.40843750  .00000000  00000+0  00000-0 0  9993
2 24024  70.0000 204.0000 0000000   0.0000 294.0000 14.51731151    12
CTC2_L_00115018-03
1 24025U 23991VD  26070.40843750  .00000000  00000+0  00000-0 0  9992
2 24025  70.0000 204.0000 0000000   0.0000  24.0000 14.51731151    14
CTC2_L_00115018-04
1 24026U 26225NV  26070.40843750  .00000000  00000+0  00000-0 0  9996
2 24026  70.0000 204.0000 0000000   0.0000 114.0000 14.51731151    15
CTC2_L_00115019-01
1 24027U 26126RI  26070.40843750  .00000000  00000+0  00000-0 0  9997
2 24027  70.0000 216.0000 0000000   0.0000 216.0000 14.51731151    12
CTC2_L_00115019-02
1 24028U 22435HJ  26070.40843750  .00000000  00000+0  00000-0 0  9997
2 24028  70.0000 216.0000 0000000   0.0000 306.0000 14.51731151    13
CTC2_L_00115019-03
1 24029U 22855JJ  26070.40843750  .00000000  00000+0  00000-0 0  9994
2 24029  70.0000 216.0000 0000000   0.0000  36.0000 14.51731151    14
CTC2_L_00115019-04
1 24030U 24596EL  26070.40843750  .00000000  00000+0  00000-0 0  9990
2 24030  70.0000 216.0000 0000000   0.0000 126.0000 14.51731151    16
CTC2_L_00115020-01
1 24031U 23459VF  26070.40843750  .00000000  00000+0  00000-0 0  9998
2 24031  70.0000 228.0000 0000000   0.0000 228.0000 14.51731151    13
CTC2_L_00115020-02
1 24032U 24301ZA  26070.40843750  .00000000  00000+0  00000-0 0  9996
2 24032  70.0000 228.0000 0000000   0.0000 318.0000 14.51731151    14
CTC2_L_00115020-03
1 24033U 24007OB  26070.40843750  .00000000  00000+0  00000-0 0  9990
2 24033  70.0000 228.0000 0000000   0.0000  48.0000 14.51731151    15
CTC2_L_00115020-04
1 24034U 26485PK  26070.40843750  .00000000  00000+0  00000-0 0  9993
2 24034  70.0000 228.0000 0000000   0.0000 138.0000 14.51731151    16
CTC2_L_00115021-01
1 24035U 24795CY  26070.40843750  .00000000  00000+0  00000-0 0  9996
2 24035  70.0000 240.0000 0000000   0.0000 240.0000 14.51731151    15
CTC2_L_00115021-02
1 24036U 22593WY  26070.40843750  .00000000  00000+0  00000-0 0  9991
2 24036  70.0000 240.0000 0000000   0.0000 330.0000 14.51731151    16
CTC2_L_00115021-03
1 24037U 26428XO  26070.40843750  .00000000  00000+0  00000-0 0  9993
2 24037  70.0000 240.0000 0000000   0.0000  60.0000 14.51731151    17
CTC2_L_00115021-04
1 24038U 26033CZ  26070.40843750  .00000000  00000+0  00000-0 0  9996
2 24038  70.0000 240.0000 0000000   0.0000 150.0000 14.51731151    18
CTC2_L_00115022-01
1 24039U 25235SY  26070.40843750  .00000000  00000+0  00000-0 0  9990
2 24039  70.0000 252.0000 0000000   0.0000 252.0000 14.51731151    15
CTC2_L_00115022-02
1 24040U 24824LG  26070.40843750  .00000000  00000+0  00000-0 0  9995
2 24040  70.0000 252.0000 0000000   0.0000 342.0000 14.51731151    17
CTC2_L_00115022-03
1 24041U 24519BX  26070.40843750  .00000000  00000+0  00000-0 0  9997
2 24041  70.0000 252.0000 0000000   0.0000  72.0000 14.51731151    18
CTC2_L_00115022-04
1 24042U 23940IE  26070.40843750  .00000000  00000+0  00000-0 0  9995
2 24042  70.0000 252.0000 0000000   0.0000 162.0000 14.51731151    19
CTC2_L_00115023-01
1 24043U 22510EJ  26070.40843750  .00000000  00000+0  00000-0 0  9998
2 24043  70.0000 264.0000 0000000   0.0000 264.0000 14.51731151    16
CTC2_L_00115023-02
1 24044U 26627RK  26070.40843750  .00000000  00000+0  00000-0 0  9992
2 24044  70.0000 264.0000 0000000   0.0000 354.0000 14.51731151    17
CTC2_L_00115023-03
1 24045U 22863MG  26070.40843750  .00000000  00000+0  00000-0 0  9991
2 24045  70.0000 264.0000 0000000   0.0000  84.0000 14.51731151    18
CTC2_L_00115023-04
1 24046U 23655NK  26070.40843750  .00000000  00000+0  00000-0 0  9992
2 24046  70.0000 264.0000 0000000   0.0000 174.0000 14.51731151    19
CTC2_L_00115024-01
1 24047U 23793AS  26070.40843750  .00000000  00000+0  00000-0 0  9996
2 24047  70.0000 276.0000 0000000   0.0000 276.0000 14.51731151    16
CTC2_L_00115024-02
1 24048U 25519C   26070.40843750  .00000000  00000+0  00000-0 0  9995
2 24048  70.0000 276.0000 0000000   0.0000   6.0000 14.51731151    18
CTC2_L_00115024-03
1 24049U 26011RT  26070.40843750  .00000000  00000+0  00000-0 0  9994
2 24049  70.0000 276.0000 0000000   0.0000  96.0000 14.51731151    18
CTC2_L_00115024-04
1 24050U 25824KK  26070.40843750  .00000000  00000+0  00000-0 0  9997
2 24050  70.0000 276.0000 0000000   0.0000 186.0000 14.51731151    10
CTC2_L_00115025-01
1 24051U 26922PY  26070.40843750  .00000000  00000+0  00000-0 0  9998
2 24051  70.0000 288.0000 0000000   0.0000 288.0000 14.51731151    17
CTC2_L_00115025-02
1 24052U 24410UC  26070.40843750  .00000000  00000+0  00000-0 0  9999
2 24052  70.0000 288.0000 0000000   0.0000  18.0000 14.51731151    19
CTC2_L_00115025-03
1 24053U 26691PH  26070.40843750  .00000000  00000+0  00000-0 0  9993
2 24053  70.0000 288.0000 0000000   0.0000 108.0000 14.51731151    10
CTC2_L_00115025-04
1 24054U 24658YQ  26070.40843750  .00000000  00000+0  00000-0 0  9995
2 24054  70.0000 288.0000 0000000   0.0000 198.0000 14.51731151    10
CTC2_L_00115026-01
1 24055U 24175LK  26070.40843750  .00000000  00000+0  00000-0 0  9990
2 24055  70.0000 300.0000 0000000   0.0000 300.0000 14.51731151    11
CTC2_L_00115026-02
1 24056U 23095RY  26070.40843750  .00000000  00000+0  00000-0 0  9991
2 24056  70.0000 300.0000 0000000   0.0000  30.0000 14.51731151    12
CTC2_L_00115026-03
1 24057U 26602AF  26070.40843750  .00000000  00000+0  00000-0 0  9999
2 24057  70.0000 300.0000 0000000   0.0000 120.0000 14.51731151    13
CTC2_L_00115026-04
1 24058U 26307BX  26070.40843750  .00000000  00000+0  00000-0 0  9992
2 24058  70.0000 300.0000 0000000   0.0000 210.0000 14.51731151    14
CTC2_L_00115027-01
1 24059U 26065VB  26070.40843750  .00000000  00000+0  00000-0 0  9994
2 24059  70.0000 312.0000 0000000   0.0000 312.0000 14.51731151    11
CTC2_L_00115027-02
1 24060U 25857AQ  26070.40843750  .00000000  00000+0  00000-0 0  9994
2 24060  70.0000 312.0000 0000000   0.0000  42.0000 14.51731151    13
CTC2_L_00115027-03
1 24061U 26331ZZ  26070.40843750  .00000000  00000+0  00000-0 0  9993
2 24061  70.0000 312.0000 0000000   0.0000 132.0000 14.51731151    14
CTC2_L_00115027-04
1 24062U 23155SD  26070.40843750  .00000000  00000+0  00000-0 0  9995
2 24062  70.0000 312.0000 0000000   0.0000 222.0000 14.51731151    15
CTC2_L_00115028-01
1 24063U 22586WJ  26070.40843750  .00000000  00000+0  00000-0 0  9993
2 24063  70.0000 324.0000 0000000   0.0000 324.0000 14.51731151    12
CTC2_L_00115028-02
1 24064U 26772LM  26070.40843750  .00000000  00000+0  00000-0 0  9995
2 24064  70.0000 324.0000 0000000   0.0000  54.0000 14.51731151    13
CTC2_L_00115028-03
1 24065U 26053TL  26070.40843750  .00000000  00000+0  00000-0 0  9998
2 24065  70.0000 324.0000 0000000   0.0000 144.0000 14.51731151    14
CTC2_L_00115028-04
1 24066U 23367MF  26070.40843750  .00000000  00000+0  00000-0 0  9994
2 24066  70.0000 324.0000 0000000   0.0000 234.0000 14.51731151    15
CTC2_L_00115029-01
1 24067U 25191DE  26070.40843750  .00000000  00000+0  00000-0 0  9992
2 24067  70.0000 336.0000 0000000   0.0000 336.0000 14.51731151    12
CTC2_L_00115029-02
1 24068U 26604HC  26070.40843750  .00000000  00000+0  00000-0 0  9993
2 24068  70.0000 336.0000 0000000   0.0000  66.0000 14.51731151    13
CTC2_L_00115029-03
1 24069U 25598NP  26070.40843750  .00000000  00000+0  00000-0 0  9995
2 24069  70.0000 336.0000 0000000   0.0000 156.0000 14.51731151    14
CTC2_L_00115029-04
1 24070U 25200ZA  26070.40843750  .00000000  00000+0  00000-0 0  9997
2 24070  70.0000 336.0000 0000000   0.0000 246.0000 14.51731151    16
CTC2_L_00115030-01
1 24071U 26451QS  26070.40843750  .00000000  00000+0  00000-0 0  9997
2 24071  70.0000 348.0000 0000000   0.0000 348.0000 14.51731151    13
CTC2_L_00115030-02
1 24072U 25760UE  26070.40843750  .00000000  00000+0  00000-0 0  9990
2 24072  70.0000 348.0000 0000000   0.0000  78.0000 14.51731151    14
CTC2_L_00115030-03
1 24073U 22895OL  26070.40843750  .00000000  00000+0  00000-0 0  9997
2 24073  70.0000 348.0000 0000000   0.0000 168.0000 14.51731151    15
CTC2_L_00115030-04
1 24074U 23025BZ  26070.40843750  .00000000  00000+0  00000-0 0  9994
2 24074  70.0000 348.0000 0000000   0.0000 258.0000 14.51731151    16
